[{"OBJECT_NAME":"STARLINK-35498","OBJECT_ID":"2025-293Q","EPOCH":"2026-03-09T10:46:11.636256","MEAN_MOTION":14.98325601,"ECCENTRICITY":0.00029353,"INCLINATION":70.0006,"RA_OF_ASC_NODE":94.9889,"ARG_OF_PERICENTER":261.5962,"MEAN_ANOMALY":98.4864,"EPHEMERIS_TYPE":0,"CLASSIFICATION_TYPE":"U","NORAD_CAT_ID":67017,"ELEMENT_SET_NO":999,"REV_AT_EPOCH":1485,"BSTAR":-0.0010476463,"MEAN_MOTION_DOT":-0.00012569,"MEAN_MOTION_DDOT":0},{"OBJECT_NAME":"CZ-6A DEB","OBJECT_ID":"2024-140ABZ","EPOCH":"2026-03-09T13:17:15.461088","MEAN_MOTION":14.68773562,"ECCENTRICITY":0.01674753,"INCLINATION":88.9962,"RA_OF_ASC_NODE":280.8142,"ARG_OF_PERICENTER":196.7539,"MEAN_ANOMALY":162.8109,"EPHEMERIS_TYPE":0,"CLASSIFICATION_TYPE":"U","NORAD_CAT_ID":61809,"ELEMENT_SET_NO":999,"REV_AT_EPOCH":8094,"BSTAR":0.00036405273,"MEAN_MOTION_DOT":2.652e-5,"MEAN_MOTION_DDOT":0}]
